226P/Pigott-LINEAR-Kowalski,e,44.0047,54.0058,341.1088,3.768613,0.1347199,0.52824468,115.6352,01/11.0/2019,2000,g 12.5,4.0
# From MPC102956
227P/Catalina-LINEAR,e,6.5229,49.7741,90.1125,3.582296,0.1453657,0.50240204,82.5184,01/11.0/2019,2000,g 16.5,2.0
# From MPC107687
228P/LINEAR,e,7.9099,31.0051,115.3000,4.176414,0.1154779,0.17738432,310.9532,01/11.0/2019,2000,g 14.5,2.0
# From MPC106349
229P/Gibbs,e,26.0717,157.8955,224.0743,3.934097,0.1263096,0.37600988,75.8483,01/11.0/2019,2000,g 13.0,4.0
# From MPC110497
230P/LINEAR,e,15.1774,108.0549,313.2846,3.414063,0.1562416,0.56203676,179.8906,01/11.0/2019,2000,g 13.0,4.0
# From MPC102102
231P/LINEAR-NEAT,e,12.3335,133.0284,42.7271,4.017887,0.1223791,0.24773101,341.1373,01/11.0/2019,2000,g 14.5,2.0
# From MPC112394
232P/Hill,e,14.6307,56.0306,53.5527,4.486791,0.1037052,0.33482139,351.1223,01/11.0/2019,2000,g 11.5,4.0
# From MPC 92986
233P/La Sagra,e,11.2843,74.9273,27.0988,3.029417,0.1869242,0.41151400,242.2621,01/11.0/2019,2000,g 15.0,4.0
# From MPC110497
234P/LINEAR,e,11.5154,179.6208,357.6660,3.808424,0.1326130,0.25363824,78.2922,01/11.0/2019,2000,g 12.0,4.0
# From MPC110497
235P/LINEAR,e,8.8981,204.4407,333.8308,3.997955,0.1232955,0.31671721,36.8830,01/11.0/2019,2000,g 12.0,4.0
# From MPC107688
236P/LINEAR,e,16.3340,245.6707,119.2387,3.733188,0.1366420,0.50792902,56.9625,01/11.0/2019,2000,g 14.0,4.0
# From MPC109593
237P/LINEAR,e,14.0250,245.4226,25.1129,3.511986,0.1497528,0.43476492,122.9505,01/11.0/2019,2000,g 14.5,2.0
# From MPC107688
238P/Read,e,1.2645,51.6438,324.8083,3.163168,0.1751946,0.25231831,142.0663,01/11.0/2019,2000,g 14.5,4.0
# From MPC112394
239P/LINEAR,e,11.3056,255.9083,220.3785,4.470654,0.1042671,0.63104412,0.0876,01/11.0/2019,2000,g 17.5,2.0
# From MPC109593
240P/NEAT,e,23.5042,74.9266,352.0785,3.871311,0.1293949,0.44884989,31.0778,01/11.0/2019,2000,g 11.0,4.0
# From MPC 75729
241P/LINEAR,e,20.9115,305.6576,110.5645,4.961281,0.0891894,0.60900637,277.2980,01/11.0/2019,2000,g 13.5,4.0
# From MPC 81861
242P/Spahr,e,32.4861,180.5926,246.4698,5.474879,0.0769382,0.27757914,191.3628,01/11.0/2019,2000,g  8.0,4.0
# From MPC111774
243P/NEAT,e,7.6415,87.6581,283.5549,3.831401,0.1314219,0.35939112,18.1353,01/11.0/2019,2000,g 12.5,4.0
# From MPC 88331
244P/Scotti,e,2.2583,354.0031,92.8463,4.896416,0.0909676,0.19752409,232.0718,01/11.0/2019,2000,g  9.0,4.0
# From MPC111774
245P/WISE,e,21.1986,316.6756,316.7011,4.039309,0.1214069,0.45777421,40.8285,01/11.0/2019,2000,g 14.0,4.0
# From MPC 93589
246P/NEAT,e,15.9870,78.7509,176.1128,4.018707,0.1223417,0.28673107,265.4112,01/11.0/2019,2000,g 10.5,4.0
# From MPC112394
247P/LINEAR,e,13.6615,54.0106,47.4496,3.970807,0.1245621,0.62499746,4.9695,01/11.0/2019,2000,g 16.5,2.0
# From MPC 75730
248P/Gibbs,e,6.3483,207.7600,210.0152,5.987609,0.0672704,0.63779227,195.4730,01/11.0/2019,2000,g 14.0,4.0
# From MPC105243
249P/LINEAR,e,8.3969,239.1907,65.5767,2.762013,0.2147165,0.81991871,245.0069,01/11.0/2019,2000,g 15.5,4.0
# From MPC110497
250P/Larson,e,13.2912,73.6778,45.1593,3.732490,0.1366803,0.40689210,46.8288,01/11.0/2019,2000,g 14.5,4.0
# From MPC104795
251P/LINEAR,e,23.4195,219.4074,31.1956,3.507890,0.1500151,0.50588557,81.5211,01/11.0/2019,2000,g 16.5,2.0
# From MPC102956
252P/LINEAR,e,10.4182,190.9538,343.3453,3.048132,0.1852053,0.67246646,191.1395,01/11.0/2019,2000,g 17.5,4.0
# From MPC112394
253P/PANSTARRS,e,4.9404,146.8779,230.7164,3.469685,0.1524997,0.41302450,37.8656,01/11.0/2019,2000,g 14.5,4.0
# From MPC 81473
254P/McNaught,e,32.4901,129.2795,219.2347,4.627934,0.0989973,0.32213052,297.9637,01/11.0/2019,2000,g 11.0,4.0
# From NK 2214
255P/Levy,e,18.3841,279.4632,179.8737,3.037018,0.1862229,0.66960871,114.8924,01/11.0/2019,2000,g 20.0,4.0
# From MPC 84027
256P/LINEAR,e,27.6392,81.3485,124.3183,4.634531,0.0987860,0.41913587,209.8414,01/11.0/2019,2000,g 14.0,2.0
# From MPC 88332
257P/Catalina,e,20.2374,207.7836,117.7824,3.759265,0.1352227,0.43071160,277.6227,01/11.0/2019,2000,g 11.5,4.0
# From MPC 79655
258P/PANSTARRS,e,6.7443,126.2531,26.1260,4.404548,0.1066233,0.20966433,303.9586,01/11.0/2019,2000,g 13.0,4.0
# From MPC106349
259P/Garradd,e,15.8891,51.4820,257.5183,2.731955,0.2182698,0.33797103,114.5627,01/11.0/2019,2000,g 15.5,4.0
# From MPC102102
260P/McNaught,e,15.0507,349.3750,18.3445,3.623388,0.1428999,0.60894784,325.4302,01/11.0/2019,2000,g 13.5,4.0
# From MPC102102
261P/Larson,e,6.0759,291.1667,67.0976,3.487905,0.1513063,0.42273114,335.9989,01/11.0/2019,2000,g 14.0,4.0
# From MPC 82322
262P/McNaught-Russell,e,29.1185,217.9367,171.0178,6.881290,0.0546008,0.81438686,121.9288,01/11.0/2019,2000,g 13.5,4.0
# From MPC 82323
263P/Gibbs,e,11.5412,105.8063,34.5527,3.059642,0.1841612,0.58793980,86.1998,01/11.0/2019,2000,g 18.0,4.0
# From MPC102102
264P/Larsen,e,25.1506,220.9031,346.6149,3.893825,0.1282742,0.37372902,333.5866,01/11.0/2019,2000,g 13.0,4.0
# From MPC 79870
265P/LINEAR,e,14.3811,343.3460,33.3189,4.241090,0.1128464,0.64884781,274.2556,01/11.0/2019,2000,g 14.5,4.0
# From MPC 90771
266P/Christensen,e,3.4272,5.0087,97.9215,3.533733,0.1483725,0.33937505,291.0606,01/11.0/2019,2000,g 12.5,4.0
# From MPC 81862
267P/LONEOS,e,6.1380,228.6889,114.0809,3.212368,0.1711852,0.61364752,29.5601,01/11.0/2019,2000,g 19.5,4.0
# From MPC 92277
268P/Bernardi,e,16.1101,127.5924,0.2238,4.556713,0.1013273,0.46962704,137.3950,01/11.0/2019,2000,g 14.0,4.0
# From MPC104795
269P/Jedicke,e,7.0731,241.7034,226.0767,7.086494,0.0522465,0.43227633,81.3762,01/11.0/2019,2000,g 10.0,4.0
# From MPC 88332
270P/Gehrels,e,2.9167,222.9585,210.0657,6.673789,0.0571670,0.46711978,116.6353,01/11.0/2019,2000,g  8.0,4.0
# From MPC 92277
271P/van Houten-Lemmon,e,6.8590,9.2899,36.6520,7.057330,0.0525707,0.39255273,105.7096,01/11.0/2019,2000,g 11.0,4.0
# From MPC 81862
272P/NEAT,e,18.0785,109.4754,28.0769,4.450777,0.1049664,0.45445343,225.2653,01/11.0/2019,2000,g 16.0,2.0
# From MPC 82723
273P/Pons-Gambart,e,136.6185,320.3998,20.2281,31.58241,0.0055531,0.97407486,0.0000,12/16.6912/2012,2000,g 11.5,4.0
# From MPC 88332
274P/Tombaugh-Tenagra,e,15.8180,81.3378,38.5962,4.368076,0.1079615,0.43867295,232.1487,01/11.0/2019,2000,g 13.0,4.0
# From MPC 81862
275P/Hermann,e,21.3142,348.7466,174.1392,5.768600,0.0711375,0.71333778,156.9789,01/11.0/2019,2000,g 15.0,4.0
# From MPC 84935
276P/Vorobjov,e,14.8822,211.6130,200.5191,5.296506,0.0808574,0.26969767,184.2918,01/11.0/2019,2000,g 11.5,4.0
# From MPC105243
277P/LINEAR,e,16.7727,276.3379,152.1760,3.855877,0.1301725,0.50476476,266.3513,01/11.0/2019,2000,g 14.0,4.0
# From MPC105243
278P/McNaught,e,6.6838,15.4633,237.9995,3.694936,0.1387694,0.43481267,275.3586,01/11.0/2019,2000,g 14.0,4.0
# From MPC 10028
279P/La Sagra,e,5.0481,346.2255,5.7799,3.577804,0.1456395,0.39725308,132.6157,01/11.0/2019,2000,g 14.0,4.0
# From MPC 89013
280P/Larsen,e,11.7709,131.4269,104.7294,4.528416,0.1022786,0.41847300,189.7316,01/11.0/2019,2000,g 12.5,4.0
# From MPC 83145
281P/MOSS,e,4.7198,87.1718,27.1425,4.865878,0.0918253,0.17153241,223.4814,01/11.0/2019,2000,g 11.0,4.0
# From unp
282P/,e,5.8088,9.3290,217.2909,4.247904,0.1125750,0.18953650,245.6690,01/11.0/2019,2000,g 13.5,2.0
# From MPC 84027
283P/Spacewatch,e,14.4575,161.1727,22.2806,4.138073,0.1170865,0.48552639,246.3436,01/11.0/2019,2000,g 16.0,2.0
# From MPC 93589
284P/McNaught,e,11.8591,144.2903,202.7504,3.672794,0.1400262,0.37567596,223.1949,01/11.0/2019,2000,g 13.0,4.0
# From MPC 85339
285P/LINEAR,e,25.0120,185.4751,178.4292,4.509359,0.1029276,0.61747952,209.3217,01/11.0/2019,2000,g 15.0,4.0
# From MPC 90771
286P/Christensen,e,17.0426,283.9563,24.6871,4.114078,0.1181124,0.42457618,216.1511,01/11.0/2019,2000,g 14.0,4.0
# From MPC 96868
287P/Christensen,e,16.3113,139.0308,188.8034,4.171298,0.1156904,0.26972292,170.6457,01/11.0/2019,2000,g 13.5,4.0
# From unp
288P/,e,3.2403,83.1870,280.8720,3.047428,0.1852695,0.20118410,147.1642,01/11.0/2019,2000,g 16.0,2.0
# From MPC102102
289P/Blanpain,e,5.8978,68.9287,9.8296,3.045477,0.1854476,0.68501305,296.2052,01/11.0/2019,2000,g 10.0,4.0
# From MPC 95214
290P/Jager,e,19.1562,303.2802,180.9125,6.130886,0.0649261,0.64767281,114.6565,01/11.0/2019,2000,g 10.5,4.0
# From MPC 89314
291P/NEAT,e,6.3860,238.3509,174.8295,4.479211,0.1039685,0.44219719,195.9102,01/11.0/2019,2000,g 13.0,4.0
# From MPC110085
292P/Li,e,24.2523,91.0009,319.5581,6.115008,0.0651791,0.58719141,117.7288,01/11.0/2019,2000,g 12.5,4.0
# From MPC 92278
293P/Spacewatch,e,9.0573,78.4102,41.1663,3.640915,0.1418693,0.41819431,259.4842,01/11.0/2019,2000,g 14.5,4.0
# From MPC 89013
294P/LINEAR,e,18.2132,312.6051,235.5172,3.205567,0.1717303,0.59430671,304.5833,01/11.0/2019,2000,g 15.5,4.0
# From MPC 93589
295P/LINEAR,e,21.0863,7.4927,73.0027,5.307400,0.0806086,0.61638917,137.5259,01/11.0/2019,2000,g 12.0,4.0
# From MPC 92278
296P/Garradd,e,25.2344,263.6406,350.0577,3.498631,0.1506111,0.47846849,267.2492,01/11.0/2019,2000,g 14.0,4.0
# From MPC102956
297P/Beshore,e,10.3278,97.6611,132.3766,3.445036,0.1541393,0.31948893,245.5659,01/11.0/2019,2000,g 15.0,4.0
# From MPC105243
298P/Christensen,e,7.8718,52.8303,100.7404,3.593014,0.1447157,0.38716991,272.5345,01/11.0/2019,2000,g 15.0,4.0
# From MPC101100
299P/Catalina-PANSTARRS,e,10.4773,271.6271,323.8267,4.381476,0.1074666,0.28262837,152.2023,01/11.0/2019,2000,g 11.5,4.0
# From MPC111774
300P/Catalina,e,5.6761,95.6735,222.8491,2.699347,0.2222368,0.69147879,15.5450,01/11.0/2019,2000,g 16.0,4.0
# From MPC 89014
301P/LINEAR-NEAT,e,10.3564,351.1768,193.7180,5.734729,0.0717686,0.58667678,114.2913,01/11.0/2019,2000,g 13.0,4.0
# From MPC108598
302P/Lemmon-PANSTARRS,e,6.0321,121.7553,208.1708,4.279513,0.1113301,0.22909040,109.7461,01/11.0/2019,2000,g 12.5,4.0
# From MPC 92278
303P/NEAT,e,7.0098,347.9839,356.8535,5.052996,0.0867722,0.50907497,134.5420,01/11.0/2019,2000,g 13.5,4.0
# From MPC 92987
304P/Ory,e,2.6329,59.0671,335.0314,3.156701,0.1757332,0.60349338,258.5106,01/11.0/2019,2000,g 16.5,4.0
# From MPC101100
305P/Skiff,e,11.6364,240.1485,147.2893,4.646834,0.0983939,0.69225371,149.3389,01/11.0/2019,2000,g 18.0,4.0
# From MPC 92278
